[
    {
        "Altitude(m)": 605470.7431073175,
        "Argument of Periapsis(deg)": 0.0,
        "Eccentricity": 0.0,
        "Inclination(deg)": 60.0,
        "Latitude(deg)": 27.988053895717787,
        "Longitude(deg)": -127.73702002211981,
        "Mean Anomaly(deg)": 147.2727,
        "RAAN(deg)": 170.00000000000003,
        "Satellite Name": "Test1 757",
        "Satellite Number": 757,
        "Semi-Major Axis(m)": 6980739.136638005,
        "Time(s)": 0
    },
    {
        "Altitude(m)": 605395.7814512968,
        "Argument of Periapsis(deg)": 0.00010418945913296404,
        "Eccentricity": 0.0,
        "Inclination(deg)": 60.0,
        "Latitude(deg)": 27.473744195694692,
        "Longitude(deg)": -127.38383343775254,
        "Mean Anomaly(deg)": 147.8928061454618,
        "RAAN(deg)": 169.99957995086027,
        "Satellite Name": "Test1 757",
        "Satellite Number": 757,
        "Semi-Major Axis(m)": 6980739.136638005,
        "Time(s)": 10
    }
]